<?xml version="1.0" encoding="UTF-8"?>
<kml xmlns="http://www.opengis.net/kml/2.2">
  <Document>
    <name>PRAKTIKUM MANDIRI</name>
    <Style id="poly-000000-1200-77-nodesc-normal">
      <LineStyle>
        <color>ff000000</color>
        <width>1.2</width>
      </LineStyle>
      <PolyStyle>
        <color>4d000000</color>
        <fill>1</fill>
        <outline>1</outline>
      </PolyStyle>
      <BalloonStyle>
        <text><![CDATA[<h3>$[name]</h3>]]></text>
      </BalloonStyle>
    </Style>
    <Style id="poly-000000-1200-77-nodesc-highlight">
      <LineStyle>
        <color>ff000000</color>
        <width>1.8</width>
      </LineStyle>
      <PolyStyle>
        <color>4d000000</color>
        <fill>1</fill>
        <outline>1</outline>
      </PolyStyle>
      <BalloonStyle>
        <text><![CDATA[<h3>$[name]</h3>]]></text>
      </BalloonStyle>
    </Style>
    <StyleMap id="poly-000000-1200-77-nodesc">
      <Pair>
        <key>normal</key>
        <styleUrl>#poly-000000-1200-77-nodesc-normal</styleUrl>
      </Pair>
      <Pair>
        <key>highlight</key>
        <styleUrl>#poly-000000-1200-77-nodesc-highlight</styleUrl>
      </Pair>
    </StyleMap>
    <Placemark>
      <name>DIY Yogyakarta</name>
      <styleUrl>#poly-000000-1200-77-nodesc</styleUrl>
      <Polygon>
        <outerBoundaryIs>
          <LinearRing>
            <tessellate>1</tessellate>
            <coordinates>
              110.0280044,-7.8894762,0
              110.1038102,-7.9270186,0
              110.1631363,-7.9585733,0
              110.2389419,-7.9999172,0
              110.3004654,-8.0173238,0
              110.3433121,-8.0369054,0
              110.3905533,-8.0738904,0
              110.4388932,-8.1010831,0
              110.5388687,-8.1304491,0
              110.6190689,-8.1565504,0
              110.6871842,-8.1913495,0
              110.7421158,-8.1935243,0
              110.789357,-8.1880872,0
              110.8311051,-8.2272328,0
              110.8344009,-8.1842812,0
              110.8157242,-8.1581816,0
              110.7937515,-8.1625317,0
              110.7849624,-8.1266425,0
              110.7761735,-8.0700833,0
              110.7607925,-8.0287465,0
              110.7640885,-7.9928455,0
              110.7728775,-7.9362676,0
              110.777272,-7.8905645,0
              110.7871598,-7.8524746,0
              110.7761735,-7.8100275,0
              110.7432144,-7.8078506,0
              110.6948746,-7.799143,0
              110.6465347,-7.7958775,0
              110.5905044,-7.8013199,0
              110.5740249,-7.7882581,0
              110.5388687,-7.7947891,0
              110.5245865,-7.7893466,0
              110.4982193,-7.7545133,0
              110.4894303,-7.7262091,0
              110.4773453,-7.6772166,0
              110.4696548,-7.6445518,0
              110.466359,-7.6195071,0
              110.454274,-7.5607008,0
              110.4388932,-7.5487207,0
              110.4037369,-7.5759476,0
              110.3685806,-7.6129734,0
              110.3235367,-7.6478184,0
              110.292775,-7.6674174,0
              110.2740982,-7.7044354,0
              110.2664078,-7.6837493,0
              110.2620132,-7.6489073,0
              110.2532242,-7.6489073,0
              110.2026871,-7.6456407,0
              110.1796157,-7.6434629,0
              110.1411636,-7.6456407,0
              110.1246841,-7.6608845,0
              110.1301773,-7.6902818,0
              110.1257828,-7.732741,0
              110.1060074,-7.7741074,0
              110.0785416,-7.8002315,0
              110.0565689,-7.8383261,0
              110.0280044,-7.8894762,0
            </coordinates>
          </LinearRing>
        </outerBoundaryIs>
      </Polygon>
    </Placemark>
    <Placemark>
      <name>DKI Jakarta</name>
      <styleUrl>#poly-000000-1200-77-nodesc</styleUrl>
      <Polygon>
        <outerBoundaryIs>
          <LinearRing>
            <tessellate>1</tessellate>
            <coordinates>
              106.723279,-6.0835306,0
              106.6947146,-6.094455,0
              106.6936159,-6.1141182,0
              106.6848268,-6.1468887,0
              106.6947146,-6.1720114,0
              106.7199831,-6.1971329,0
              106.7199831,-6.2233454,0
              106.744153,-6.2331747,0
              106.7529421,-6.2626616,0
              106.7639285,-6.2910548,0
              106.7793092,-6.3183545,0
              106.8045778,-6.3194465,0
              106.7946901,-6.343469,0
              106.8034792,-6.3642147,0
              106.8265505,-6.3554798,0
              106.8485231,-6.3391013,0
              106.8661013,-6.3587554,0
              106.8858767,-6.3729496,0
              106.908948,-6.3707659,0
              106.917737,-6.3249062,0
              106.9100466,-6.2888708,0
              106.9034548,-6.2593853,0
              106.9342165,-6.2506486,0
              106.9452029,-6.2320825,0
              106.962781,-6.2047783,0
              106.9726687,-6.1774727,0
              106.9693728,-6.1348731,0
              106.9682741,-6.0955474,0
              106.9232302,-6.0879004,0
              106.8770876,-6.0988246,0
              106.8386354,-6.1108411,0
              106.8001833,-6.116303,0
              106.7606325,-6.1053791,0
              106.723279,-6.0835306,0
            </coordinates>
          </LinearRing>
        </outerBoundaryIs>
      </Polygon>
    </Placemark>
    <Placemark>
      <name>Kota Depok</name>
      <styleUrl>#poly-000000-1200-77-nodesc</styleUrl>
      <Polygon>
        <outerBoundaryIs>
          <LinearRing>
            <tessellate>1</tessellate>
            <coordinates>
              106.7418318,-6.395946,0
              106.7357893,-6.4068638,0
              106.7324934,-6.4319739,0
              106.7264509,-6.4603578,0
              106.7346907,-6.4849195,0
              106.7522688,-6.4920148,0
              106.7588606,-6.5100257,0
              106.7698469,-6.5340393,0
              106.7824812,-6.5553229,0
              106.8033552,-6.5656916,0
              106.8390608,-6.5662373,0
              106.8467512,-6.5585973,0
              106.8571883,-6.5182123,0
              106.8753157,-6.4860111,0
              106.8901472,-6.4570828,0
              106.8994856,-6.4221484,0
              106.896739,-6.3910329,0
              106.8928938,-6.3708341,0
              106.8661013,-6.3587554,0
              106.8485231,-6.3391013,0
              106.8352156,-6.3566399,0
              106.8214827,-6.3566399,0
              106.8034792,-6.3642147,0
              106.7725935,-6.3582777,0
              106.7467756,-6.3566399,0
              106.7418318,-6.395946,0
            </coordinates>
          </LinearRing>
        </outerBoundaryIs>
      </Polygon>
    </Placemark>
  </Document>
</kml>
