<?xml version="1.0" encoding="UTF-8"?>
<kml xmlns="http://www.opengis.net/kml/2.2">
  <Document>
    <name>Taman Kota Jakarta</name>
    <Style id="poly-000000-1200-77-nodesc-normal">
      <LineStyle>
        <color>ff000000</color>
        <width>1.2</width>
      </LineStyle>
      <PolyStyle>
        <color>4d000000</color>
        <fill>1</fill>
        <outline>1</outline>
      </PolyStyle>
      <BalloonStyle>
        <text><![CDATA[<h3>$[name]</h3>]]></text>
      </BalloonStyle>
    </Style>
    <Style id="poly-000000-1200-77-nodesc-highlight">
      <LineStyle>
        <color>ff000000</color>
        <width>1.8</width>
      </LineStyle>
      <PolyStyle>
        <color>4d000000</color>
        <fill>1</fill>
        <outline>1</outline>
      </PolyStyle>
      <BalloonStyle>
        <text><![CDATA[<h3>$[name]</h3>]]></text>
      </BalloonStyle>
    </Style>
    <StyleMap id="poly-000000-1200-77-nodesc">
      <Pair>
        <key>normal</key>
        <styleUrl>#poly-000000-1200-77-nodesc-normal</styleUrl>
      </Pair>
      <Pair>
        <key>highlight</key>
        <styleUrl>#poly-000000-1200-77-nodesc-highlight</styleUrl>
      </Pair>
    </StyleMap>
    <Placemark>
      <name>Taman Monas</name>
      <styleUrl>#poly-000000-1200-77-nodesc</styleUrl>
      <Polygon>
        <outerBoundaryIs>
          <LinearRing>
            <tessellate>1</tessellate>
            <coordinates>
              106.8234727,-6.1713453,0
              106.8232496,-6.1729496,0
              106.8232324,-6.1741784,0
              106.8231809,-6.1754413,0
              106.8231294,-6.1765336,0
              106.8230951,-6.1776258,0
              106.8230779,-6.1789911,0
              106.8231122,-6.1798786,0
              106.82361,-6.1803223,0
              106.825773,-6.1803052,0
              106.8280046,-6.1802199,0
              106.8296182,-6.1801516,0
              106.83094,-6.1800663,0
              106.8310258,-6.1796226,0
              106.8305108,-6.1788375,0
              106.8306653,-6.1785815,0
              106.8302877,-6.1781549,0
              106.8298585,-6.177677,0
              106.8298928,-6.1766872,0
              106.8299958,-6.1752194,0
              106.8297899,-6.1735128,0
              106.829086,-6.1729496,0
              106.829292,-6.1720451,0
              106.8291204,-6.1714989,0
              106.8279359,-6.1714477,0
              106.8258416,-6.1714136,0
              106.8234727,-6.1713453,0
            </coordinates>
          </LinearRing>
        </outerBoundaryIs>
      </Polygon>
    </Placemark>
    <Placemark>
      <name>Gelora Bung Karno</name>
      <styleUrl>#poly-000000-1200-77-nodesc</styleUrl>
      <Polygon>
        <outerBoundaryIs>
          <LinearRing>
            <tessellate>1</tessellate>
            <coordinates>
              106.7981005,-6.2145387,0
              106.7982379,-6.2166548,0
              106.7980319,-6.2192828,0
              106.7984439,-6.2208528,0
              106.8001605,-6.221433,0
              106.8019801,-6.2222522,0
              106.8034564,-6.223515,0
              106.8047267,-6.2250508,0
              106.8057566,-6.2241976,0
              106.8073703,-6.2232078,0
              106.8087779,-6.2221498,0
              106.8085376,-6.2209552,0
              106.8084346,-6.2197265,0
              106.8084002,-6.2175763,0
              106.8083659,-6.2158357,0
              106.8085719,-6.2146752,0
              106.8079539,-6.2135148,0
              106.8067866,-6.2125933,0
              106.805688,-6.2126615,0
              106.8019114,-6.2136855,0
              106.7981005,-6.2145387,0
            </coordinates>
          </LinearRing>
        </outerBoundaryIs>
      </Polygon>
    </Placemark>
    <Placemark>
      <name>Kebun Binatang Ragunan</name>
      <styleUrl>#poly-000000-1200-77-nodesc</styleUrl>
      <Polygon>
        <outerBoundaryIs>
          <LinearRing>
            <tessellate>1</tessellate>
            <coordinates>
              106.8159481,-6.3049344,0
              106.8167377,-6.3073914,0
              106.8158451,-6.3083127,0
              106.8157421,-6.3092341,0
              106.8161541,-6.3104967,0
              106.8162228,-6.3111451,0
              106.8162914,-6.3142504,0
              106.8162914,-6.3151717,0
              106.8163601,-6.316093,0
              106.8164974,-6.3171509,0
              106.8173901,-6.317185,0
              106.8194843,-6.3173898,0
              106.8210293,-6.3175604,0
              106.8227116,-6.3175604,0
              106.8244968,-6.3173556,0
              106.8249088,-6.3164002,0
              106.8252865,-6.3146598,0
              106.8253551,-6.3137044,0
              106.8254925,-6.3127489,0
              106.8263164,-6.3114863,0
              106.8267628,-6.3104967,0
              106.8270031,-6.308927,0
              106.8252865,-6.308654,0
              106.8246342,-6.3076985,0
              106.8245312,-6.3065042,0
              106.8229519,-6.3065724,0
              106.8216473,-6.3065724,0
              106.8206516,-6.306197,0
              106.8201366,-6.3056852,0
              106.818317,-6.3051733,0
              106.8159481,-6.3049344,0
            </coordinates>
          </LinearRing>
        </outerBoundaryIs>
      </Polygon>
    </Placemark>
    <Placemark>
      <name>Area Taman Mini Indonesia</name>
      <styleUrl>#poly-000000-1200-77-nodesc</styleUrl>
      <Polygon>
        <outerBoundaryIs>
          <LinearRing>
            <tessellate>1</tessellate>
            <coordinates>
              106.8893629,-6.3036967,0
              106.8908735,-6.3038332,0
              106.8921609,-6.3038503,0
              106.8936887,-6.3037479,0
              106.8951307,-6.3036626,0
              106.8977056,-6.3037649,0
              106.9002462,-6.3035773,0
              106.9022203,-6.3035261,0
              106.9039541,-6.303236,0
              106.9044862,-6.302144,0
              106.9037653,-6.301052,0
              106.9030786,-6.3009155,0
              106.9021516,-6.3009497,0
              106.90198,-6.2998577,0
              106.9009672,-6.2995847,0
              106.8989587,-6.2995847,0
              106.8976541,-6.2997894,0
              106.8958517,-6.2998235,0
              106.8946157,-6.2999088,0
              106.8927618,-6.2999771,0
              106.8921609,-6.300489,0
              106.8905302,-6.3004378,0
              106.8893972,-6.3005402,0
              106.8893285,-6.3016322,0
              106.8893629,-6.3036967,0
            </coordinates>
          </LinearRing>
        </outerBoundaryIs>
      </Polygon>
    </Placemark>
    <Placemark>
      <name>Tebet Echo Park</name>
      <styleUrl>#poly-000000-1200-77-nodesc</styleUrl>
      <Polygon>
        <outerBoundaryIs>
          <LinearRing>
            <tessellate>1</tessellate>
            <coordinates>
              106.8508665,-6.2327458,0
              106.8506433,-6.2338891,0
              106.8509523,-6.2345205,0
              106.8516733,-6.2350154,0
              106.8525659,-6.2355615,0
              106.8525831,-6.2364318,0
              106.8522741,-6.2375239,0
              106.8519822,-6.2386672,0
              106.8517934,-6.2399129,0
              106.8521367,-6.2409197,0
              106.8526689,-6.2421142,0
              106.8532354,-6.2421313,0
              106.8540937,-6.2421142,0
              106.853613,-6.2416194,0
              106.8531667,-6.2408856,0
              106.8529951,-6.2401006,0
              106.8530637,-6.2391109,0
              106.8533212,-6.23807,0
              106.8535444,-6.2371314,0
              106.8535615,-6.2361587,0
              106.8534414,-6.235442,0
              106.8532354,-6.2347594,0
              106.8528406,-6.2347765,0
              106.8527547,-6.2340427,0
              106.8526174,-6.2334455,0
              106.8521711,-6.2334284,0
              106.8518621,-6.2334796,0
              106.8513128,-6.2334284,0
              106.8512956,-6.233053,0
              106.8508665,-6.2327458,0
            </coordinates>
          </LinearRing>
        </outerBoundaryIs>
      </Polygon>
    </Placemark>
  </Document>
</kml>
